ORBCOMM FM24 [-]        
1 25478U 98053D   23317.87055635  .00001270  00000+0  49201-3 0  9994
2 25478  45.0075 137.8756 0001485 176.4027 183.6831 14.34887565313863
ORBCOMM FM25 [-]        
1 25479U 98053E   23317.76515039  .00001471  00000+0  56244-3 0  9990
2 25479  45.0055 136.6072 0003815 207.7644 152.3000 14.34872036314142
ORBCOMM FM26 [-]        
1 25480U 98053F   23317.77927158  .00001336  00000+0  51961-3 0  9993
2 25480  45.0058 129.9850 0005670 232.8362 127.1968 14.34426540314095
ORBCOMM FM27 [+]        
1 25481U 98053G   23317.82006192  .00001382  00000+0  53162-3 0  9992
2 25481  45.0037 136.6057 0000518  97.5869 262.5037 14.34845399314088
ORBCOMM FM28 [-]        
1 25482U 98053H   23318.42114773  .00001385  00000+0  52745-3 0  9994
2 25482  45.0058  72.8674 0004812 253.3961 106.6357 14.35338543315009
ORBCOMM FM30 [-]        
1 25980U 99065A   23318.03692091  .00001457  00000+0  56078-3 0  9995
2 25980  45.0333 314.1270 0007385 327.2429  32.7960 14.34561420251458
ORBCOMM FM31 [-]        
1 25981U 99065B   23318.28254493  .00001154  00000+0  45438-3 0  9995
2 25981  45.0244 306.8049 0004152 337.7096  22.3570 14.34584975251482
ORBCOMM FM32 [+]        
1 25982U 99065C   23317.71696264  .00001293  00000+0  51353-3 0  9996
2 25982  45.0176 321.9630 0006051 344.4408  15.6252 14.33527602251084
